GLOBALSTAR M075         
1 37192U 10054E   25168.07935803 -.00000102  00000+0  11728-4 0  9995
2 37192  51.9917 181.8653 0000092 100.6251 296.9108 12.62265845676368
GLOBALSTAR M073         
1 37193U 10054F   25167.55444594 -.00000100  00000+0  20499-4 0  9993
2 37193  52.0058  97.2804 0000600  31.6122 139.2524 12.62271970677751
GLOBALSTAR M083         
1 37739U 11033A   25167.92904421 -.00000095  00000+0  51243-4 0  9992
2 37739  51.9873  44.8736 0000587  74.4221 298.8567 12.62263915646824
GLOBALSTAR M088         
1 37740U 11033B   25167.66499069 -.00000083  00000+0  11482-3 0  9999
2 37740  52.0062 311.2266 0000838 118.4190 255.0063 12.62265586642334
GLOBALSTAR M091         
1 37741U 11033C   25168.23247608 -.00000084  00000+0  11143-3 0  9999
2 37741  52.0002 272.9962 0000663 151.7554 221.9005 12.62268808643457
GLOBALSTAR M085         
1 37742U 11033D   25168.14254667 -.00000100  00000+0  21928-4 0  9995
2 37742  51.9849 224.3078 0000424 183.1211 202.1629 12.62269420644183
GLOBALSTAR M081         
1 37743U 11033E   25168.16763863 -.00000097  00000+0  37412-4 0  9991
2 37743  51.9943 227.0204 0000232 186.8515 191.2257 12.62266568644224
GLOBALSTAR M089         
1 37744U 11033F   25167.76560387 -.00000103  00000+0  59883-5 0  9998
2 37744  51.9901 182.4698 0000291  45.5673 126.0735 12.62264856644631
